{
  "type": "FeatureCollection",
  "features": [
    {
      "type": "Feature",
      "properties": {
        "norad_id": 36036,
        "name": "SMOS",
        "group": "resource",
        "lat": 63.340193171040696,
        "lon": 1.262224770395843,
        "alt_km": 752.4738942869762,
        "timestamp": "2025-12-04T21:36:15.531061+00:00",
        "meta_object_name": "SMOS",
        "meta_object_id": "2009-059A",
        "meta_epoch": "2025-12-04T12:43:52.487040",
        "meta_mean_motion": 14.39791112,
        "meta_eccentricity": 0.0001012,
        "meta_inclination": 98.4384,
        "meta_ra_of_asc_node": 163.7002,
        "meta_arg_of_pericenter": 72.1141,
        "meta_mean_anomaly": 288.0158,
        "meta_ephemeris_type": 0,
        "meta_classification_type": "U",
        "meta_norad_cat_id": 36036,
        "meta_element_set_no": 999,
        "meta_rev_at_epoch": 84544,
        "meta_bstar": 0.00025731876,
        "meta_mean_motion_dot": 7.63e-06,
        "meta_mean_motion_ddot": 0,
        "tle_line1": "1 36036U 09059A   25338.53046860  .00000763  00000+0  25732-3 0  9991",
        "tle_line2": "2 36036  98.4384 163.7002 0001012  72.1141 288.0158 14.39791112845440"
      },
      "geometry": {
        "type": "Point",
        "coordinates": [
          1.262224770395843,
          63.340193171040696
        ]
      }
    },
    {
      "type": "Feature",
      "properties": {
        "norad_id": 36110,
        "name": "YAOGAN-7",
        "group": "resource",
        "lat": -49.45570322454532,
        "lon": -129.8159474949788,
        "alt_km": 626.7997185057193,
        "timestamp": "2025-12-04T21:36:15.531072+00:00",
        "meta_object_name": "YAOGAN-7",
        "meta_object_id": "2009-069A",
        "meta_epoch": "2025-12-04T15:19:45.779520",
        "meta_mean_motion": 14.77713846,
        "meta_eccentricity": 0.00237327,
        "meta_inclination": 98.0302,
        "meta_ra_of_asc_node": 220.4244,
        "meta_arg_of_pericenter": 308.6984,
        "meta_mean_anomaly": 51.2103,
        "meta_ephemeris_type": 0,
        "meta_classification_type": "U",
        "meta_norad_cat_id": 36110,
        "meta_element_set_no": 999,
        "meta_rev_at_epoch": 86089,
        "meta_bstar": 0.00019834639,
        "meta_mean_motion_dot": 1.374e-05,
        "meta_mean_motion_ddot": 0,
        "tle_line1": "1 36110U 09069A   25338.63872430  .00001374  00000+0  19835-3 0  9992",
        "tle_line2": "2 36110  98.0302 220.4244 0023732 308.6984  51.2103 14.77713846860899"
      },
      "geometry": {
        "type": "Point",
        "coordinates": [
          -129.8159474949788,
          -49.45570322454532
        ]
      }
    },
    {
      "type": "Feature",
      "properties": {
        "norad_id": 36605,
        "name": "TANDEM-X",
        "group": "resource",
        "lat": 69.9679762913497,
        "lon": -174.5899655837692,
        "alt_km": 500.4612914720201,
        "timestamp": "2025-12-04T21:36:15.531082+00:00",
        "meta_object_name": "TANDEM-X",
        "meta_object_id": "2010-030A",
        "meta_epoch": "2025-12-03T18:15:14.537088",
        "meta_mean_motion": 15.1916235,
        "meta_eccentricity": 0.00017564,
        "meta_inclination": 97.4443,
        "meta_ra_of_asc_node": 343.2715,
        "meta_arg_of_pericenter": 92.1775,
        "meta_mean_anomaly": 267.9661,
        "meta_ephemeris_type": 0,
        "meta_classification_type": "U",
        "meta_norad_cat_id": 36605,
        "meta_element_set_no": 999,
        "meta_rev_at_epoch": 85697,
        "meta_bstar": 0.00011369196,
        "meta_mean_motion_dot": 2.322e-05,
        "meta_mean_motion_ddot": 0,
        "tle_line1": "1 36605U 10030A   25337.76058492  .00002322  00000+0  11369-3 0  9996",
        "tle_line2": "2 36605  97.4443 343.2715 0001756  92.1775 267.9661 15.19162350856973"
      },
      "geometry": {
        "type": "Point",
        "coordinates": [
          -174.5899655837692,
          69.9679762913497
        ]
      }
    },
    {
      "type": "Feature",
      "properties": {
        "norad_id": 36795,
        "name": "CARTOSAT-2B",
        "group": "resource",
        "lat": -28.026074130600946,
        "lon": -155.99208007429698,
        "alt_km": 641.786237263309,
        "timestamp": "2025-12-04T21:36:15.531092+00:00",
        "meta_object_name": "CARTOSAT-2B",
        "meta_object_id": "2010-035A",
        "meta_epoch": "2025-12-04T15:47:42.298944",
        "meta_mean_motion": 14.78770067,
        "meta_eccentricity": 0.00128955,
        "meta_inclination": 97.7865,
        "meta_ra_of_asc_node": 27.9506,
        "meta_arg_of_pericenter": 101.3269,
        "meta_mean_anomaly": 258.9392,
        "meta_ephemeris_type": 0,
        "meta_classification_type": "U",
        "meta_norad_cat_id": 36795,
        "meta_element_set_no": 999,
        "meta_rev_at_epoch": 83110,
        "meta_bstar": 0.00021045092,
        "meta_mean_motion_dot": 1.498e-05,
        "meta_mean_motion_ddot": 0,
        "tle_line1": "1 36795U 10035A   25338.65812846  .00001498  00000+0  21045-3 0  9996",
        "tle_line2": "2 36795  97.7865  27.9506 0012895 101.3269 258.9392 14.78770067831108"
      },
      "geometry": {
        "type": "Point",
        "coordinates": [
          -155.99208007429698,
          -28.026074130600946
        ]
      }
    },
    {
      "type": "Feature",
      "properties": {
        "norad_id": 36834,
        "name": "YAOGAN-10",
        "group": "resource",
        "lat": 54.874362484726234,
        "lon": -169.81448982430166,
        "alt_km": 608.9475958903004,
        "timestamp": "2025-12-04T21:36:15.531102+00:00",
        "meta_object_name": "YAOGAN-10",
        "meta_object_id": "2010-038A",
        "meta_epoch": "2025-12-04T15:15:29.912832",
        "meta_mean_motion": 14.84559862,
        "meta_eccentricity": 0.00015176,
        "meta_inclination": 97.9146,
        "meta_ra_of_asc_node": 358.5175,
        "meta_arg_of_pericenter": 85.7771,
        "meta_mean_anomaly": 66.1922,
        "meta_ephemeris_type": 0,
        "meta_classification_type": "U",
        "meta_norad_cat_id": 36834,
        "meta_element_set_no": 999,
        "meta_rev_at_epoch": 82833,
        "meta_bstar": 0.0003362201,
        "meta_mean_motion_dot": 2.784e-05,
        "meta_mean_motion_ddot": 0,
        "tle_line1": "1 36834U 10038A   25338.63576288  .00002784  00000+0  33622-3 0  9991",
        "tle_line2": "2 36834  97.9146 358.5175 0001517  85.7771  66.1922 14.84559862828337"
      },
      "geometry": {
        "type": "Point",
        "coordinates": [
          -169.81448982430166,
          54.874362484726234
        ]
      }
    },
    {
      "type": "Feature",
      "properties": {
        "norad_id": 37216,
        "name": "COSMO-SKYMED 4",
        "group": "resource",
        "lat": 63.09033959913808,
        "lon": -3.8210118442453624,
        "alt_km": 615.579894770668,
        "timestamp": "2025-12-04T21:36:15.531113+00:00",
        "meta_object_name": "COSMO-SKYMED 4",
        "meta_object_id": "2010-060A",
        "meta_epoch": "2025-12-04T16:13:23.485728",
        "meta_mean_motion": 14.82153185,
        "meta_eccentricity": 0.00013884,
        "meta_inclination": 97.8808,
        "meta_ra_of_asc_node": 160.1207,
        "meta_arg_of_pericenter": 83.0175,
        "meta_mean_anomaly": 277.1196,
        "meta_ephemeris_type": 0,
        "meta_classification_type": "U",
        "meta_norad_cat_id": 37216,
        "meta_element_set_no": 999,
        "meta_rev_at_epoch": 81575,
        "meta_bstar": 0.00014104474,
        "meta_mean_motion_dot": 1.071e-05,
        "meta_mean_motion_ddot": 0,
        "tle_line1": "1 37216U 10060A   25338.67596627  .00001071  00000+0  14104-3 0  9996",
        "tle_line2": "2 37216  97.8808 160.1207 0001388  83.0175 277.1196 14.82153185815759"
      },
      "geometry": {
        "type": "Point",
        "coordinates": [
          -3.8210118442453624,
          63.09033959913808
        ]
      }
    },
    {
      "type": "Feature",
      "properties": {
        "norad_id": 37387,
        "name": "RESOURCESAT-2",
        "group": "resource",
        "lat": -12.960526026055629,
        "lon": 44.527238443983684,
        "alt_km": 823.2136088457919,
        "timestamp": "2025-12-04T21:36:15.531123+00:00",
        "meta_object_name": "RESOURCESAT-2",
        "meta_object_id": "2011-015A",
        "meta_epoch": "2025-12-04T14:54:32.559552",
        "meta_mean_motion": 14.21592319,
        "meta_eccentricity": 0.00067456,
        "meta_inclination": 98.7888,
        "meta_ra_of_asc_node": 42.2091,
        "meta_arg_of_pericenter": 63.571,
        "meta_mean_anomaly": 296.6158,
        "meta_ephemeris_type": 0,
        "meta_classification_type": "U",
        "meta_norad_cat_id": 37387,
        "meta_element_set_no": 999,
        "meta_rev_at_epoch": 75853,
        "meta_bstar": 0.00017631678,
        "meta_mean_motion_dot": 3.42e-06,
        "meta_mean_motion_ddot": 0,
        "tle_line1": "1 37387U 11015A   25338.62121018  .00000342  00000+0  17632-3 0  9998",
        "tle_line2": "2 37387  98.7888  42.2091 0006745  63.5710 296.6158 14.21592319758532"
      },
      "geometry": {
        "type": "Point",
        "coordinates": [
          44.527238443983684,
          -12.960526026055629
        ]
      }
    }
  ]
}